LIGHT-1                 
1 51509U 98067TG  22157.33948200  .00024880  00000+0  32709-3 0  9991
2 51509  51.6414  26.4476 0009047 182.5296 177.5652 15.58292680 19161
GT-1                    
1 51510U 98067TH  22156.91479486  .00389421  67488-4  12719-2 0  9992
2 51510  51.6296  20.5259 0011399 226.1689 133.8375 15.89986915 19228
PROGRESS-MS 19          
1 51660U 22014A   22156.64944946  .00008449  00000+0  15647-3 0  9999
2 51660  51.6453  33.7350 0004556 198.7031 202.5441 15.49885083343395
CYGNUS NG-17            
1 51712U 22015A   22156.64944946  .00008449  00000+0  15647-3 0  9998
2 51712  51.6453  33.7350 0004556 198.7031 202.5441 15.49885083343393
SOYUZ-MS 21             
1 52086U 22028A   22156.64944946  .00008449  00000+0  15647-3 0  9997
2 52086  51.6453  33.7350 0004556 198.7031 202.5441 15.49885083343398
IHI-SAT                 
1 52147U 98067TJ  22156.93876586  .00024453  00000+0  35219-3 0  9997
2 52147  51.6396  30.5113 0004131 217.9287 142.1414 15.55877834 11528
KITSUNE                 
1 52148U 98067TK  22157.26581227  .00016238  00000+0  25238-3 0  9992
2 52148  51.6449  29.4753 0003814 203.1184 263.6963 15.54085107 11504
CREW DRAGON 4           
1 52318U 22042A   22156.64944946  .00008449  00000+0  15647-3 0  9991
2 52318  51.6453  33.7350 0004556 198.7031 202.5441 15.49885083343396
ISS DEB                 
1 52329U 98067TM  22155.70557066  .00203167  00000+0  19429-2 0  9997
2 52329  51.6396  36.4065 0012472 210.6852 205.5495 15.65431075  5795
ISS DEB                 
1 52432U 98067TN  22138.19734817  .00561148  00000+0  59048-2 0  9994
2 52432  51.6418 124.3193 0010297 136.5693 229.2674 15.61872765  2314
TIANZHOU-4              
1 52509U 22050A   22156.68676289  .00006037  00000+0  76734-4 0  9994
2 52509  41.4729 288.8468 0004195 221.2784 217.8663 15.59945277 62970
PROGRESS-MS 20          
1 52795U 22059A   22156.64944946  .00008449  00000+0  15647-3 0  9998
2 52795  51.6453  33.7350 0004556 198.7031 202.5441 15.49885083343395
SL-4 R/B                
1 52796U 22059B   22156.83596375  .37816646  12806-4  17836-3 0  9999
2 52796  51.6354  31.1955 0004427 119.0559 241.9986 16.55632723   397
SHENZHOU 14             
1 52797U 22060A   22156.68676289  .00006037  00000+0  76734-4 0  9994
2 52797  41.4729 288.8468 0004195 221.2784 217.8663 15.59945277 62979
OBJECT B                
1 52798U 22060B   22157.59602904 -.00002403  76031-5  00000+0 0  9994
2 52798  41.4689 282.7762 0103875 134.8397 226.2336 16.02969855   249
OBJECT C                
1 52799U 22060C   22157.51173230 -.00002296  72694-5  00000+0 0  9993
2 52799  41.3295 284.0323 0199247 125.7080 333.0430 15.82158031   229
OBJECT D                
1 52800U 22060D   22157.51593201 -.00002283  72280-5  00000+0 0  9997
2 52800  41.3667 283.9776 0221000 123.2175 334.2360 15.76182710   225
OBJECT E                
1 52801U 22060E   22157.36932009 -.00002194  69449-5  00000+0 0  9998
2 52801  41.0685 284.5238 0123495 165.3532 231.9799 15.84772631   197
OBJECT F                
1 52802U 22060F   22157.36116973 -.00001874  59401-5  00000+0 0  9994
2 52802  40.0363 285.1950 0274199 210.5980 152.1678 15.86151462   247
